{
    "links": {
        "self": "http://www.neowsapp.com/rest/v1/neo/3760887?api_key=iIulBulltgU6a56xZRHN4H3l9WmuAYTsLGpBGhQ2"
    },
    "id": "3760887",
    "neo_reference_id": "3760887",
    "name": "(2016 TT55)",
    "designation": "2016 TT55",
    "nasa_jpl_url": "http://ssd.jpl.nasa.gov/sbdb.cgi?sstr=3760887",
    "absolute_magnitude_h": 25.9,
    "estimated_diameter": {
        "kilometers": {
            "estimated_diameter_min": 0.0175612318,
            "estimated_diameter_max": 0.0392681082
        },
        "meters": {
            "estimated_diameter_min": 17.561231848,
            "estimated_diameter_max": 39.2681081809
        },
        "miles": {
            "estimated_diameter_min": 0.0109120402,
            "estimated_diameter_max": 0.0244000636
        },
        "feet": {
            "estimated_diameter_min": 57.6155918963,
            "estimated_diameter_max": 128.8323800441
        }
    },
    "is_potentially_hazardous_asteroid": false,
    "close_approach_data": [
        {
            "close_approach_date": "2016-10-04",
            "close_approach_date_full": "2016-Oct-04 07:51",
            "epoch_date_close_approach": 1475567460000,
            "relative_velocity": {
                "kilometers_per_second": "9.2958669247",
                "kilometers_per_hour": "33465.1209289084",
                "miles_per_hour": "20793.9247238542"
            },
            "miss_distance": {
                "astronomical": "0.0309221764",
                "lunar": "12.0287266196",
                "kilometers": "4625891.725204268",
                "miles": "2874395.8305361784"
            },
            "orbiting_body": "Earth"
        }
    ],
    "orbital_data": {
        "orbit_id": "6",
        "orbit_determination_date": "2017-04-06 08:23:05",
        "first_observation_date": "2016-10-11",
        "last_observation_date": "2016-10-24",
        "data_arc_in_days": 13,
        "observations_used": 39,
        "orbit_uncertainty": "8",
        "minimum_orbit_intersection": ".02255",
        "jupiter_tisserand_invariant": "3.302",
        "epoch_osculation": "2457675.5",
        "eccentricity": ".5767608291223506",
        "semi_major_axis": "2.359274914752379",
        "inclination": "4.408616780870126",
        "ascending_node_longitude": "20.10070644244848",
        "orbital_period": "1323.628933511123",
        "perihelion_distance": ".9985375587922337",
        "perihelion_argument": "329.2374800333446",
        "aphelion_distance": "3.720012270712524",
        "perihelion_time": "2457648.578079459673",
        "mean_anomaly": "7.322211799048949",
        "mean_motion": ".2719795487131325",
        "equinox": "J2000",
        "orbit_class": {
            "orbit_class_type": "APO",
            "orbit_class_description": "Near-Earth asteroid orbits which cross the Earth’s orbit similar to that of 1862 Apollo",
            "orbit_class_range": "a (semi-major axis) > 1.0 AU; q (perihelion) < 1.017 AU"
        }
    },
    "is_sentry_object": false
}